{
    "CCSDS_OMM_VERS": "3.0",
    "COMMENT": "GENERATED VIA SPACE-TRACK.ORG API",
    "CREATION_DATE": "2025-05-23T06:46:19",
    "ORIGINATOR": "18 SPCS",
    "OBJECT_NAME": "BEIDOU 3 M28",
    "OBJECT_ID": "2023-207A",
    "CENTER_NAME": "EARTH",
    "REF_FRAME": "TEME",
    "TIME_SYSTEM": "UTC",
    "MEAN_ELEMENT_THEORY": "SGP4",
    "EPOCH": "2025-05-22T09:28:04.939104",
    "MEAN_MOTION": "1.86229821",
    "ECCENTRICITY": "0.00039520",
    "INCLINATION": "55.4024",
    "RA_OF_ASC_NODE": "75.5237",
    "ARG_OF_PERICENTER": "321.0709",
    "MEAN_ANOMALY": "38.8819",
    "EPHEMERIS_TYPE": "0",
    "CLASSIFICATION_TYPE": "U",
    "NORAD_CAT_ID": "58654",
    "ELEMENT_SET_NO": "999",
    "REV_AT_EPOCH": "956",
    "BSTAR": "0.00000000000000",
    "MEAN_MOTION_DOT": "-0.00000021",
    "MEAN_MOTION_DDOT": "0.0000000000000",
    "SEMIMAJOR_AXIS": "27906.306",
    "PERIOD": "773.238",
    "APOAPSIS": "21539.200",
    "PERIAPSIS": "21517.143",
    "OBJECT_TYPE": "PAYLOAD",
    "RCS_SIZE": "LARGE",
    "COUNTRY_CODE": "PRC",
    "LAUNCH_DATE": "2023-12-26",
    "SITE": "XSC",
    "DECAY_DATE": null,
    "FILE": "4736695",
    "GP_ID": "288169448",
    "TLE_LINE0": "0 BEIDOU 3 M28",
    "TLE_LINE1": "1 58654U 23207A   25142.39450161 -.00000021  00000-0  00000+0 0  9998",
    "TLE_LINE2": "2 58654  55.4024  75.5237 0003952 321.0709  38.8819  1.86229821  9566"
}